{"type": "FeatureCollection", "features": [ {"type": "Feature", "properties": {"norad_id": 60989, "name": "SENTINEL-2C", "group": "resource", "lat": -43.24573507801711, "lon": 76.11743165312578, "alt_km": 796.2470789381323, "timestamp": "2025-12-21T14:40:47.568695+00:00", "meta": {"OBJECT_NAME": "SENTINEL-2C", "OBJECT_ID": "2024-157A", "EPOCH": "2025-12-21T04:48:52.493184", "MEAN_MOTION": 14.30820648, "ECCENTRICITY": 0.00011952, "INCLINATION": 98.5673, "RA_OF_ASC_NODE": 67.561, "ARG_OF_PERICENTER": 95.4997, "MEAN_ANOMALY": 264.6322, "EPHEMERIS_TYPE": 0, "CLASSIFICATION_TYPE": "U", "NORAD_CAT_ID": 60989, "ELEMENT_SET_NO": 999, "REV_AT_EPOCH": 6753, "BSTAR": 5.7471349e-05, "MEAN_MOTION_DOT": 1.07e-06, "MEAN_MOTION_DDOT": 0}, "tle": {"line1": "1 60989U 24157A   25355.20060756  .00000107  00000+0  57471-4 0  9992", "line2": "2 60989  98.5673  67.5610 0001195  95.4997 264.6322 14.30820648 67538"}}, "geometry": {"type": "Point", "coordinates": [76.11743165312578, -43.24573507801711]}}, {"type": "Feature", "properties": {"norad_id": 61735, "name": "IONOSFERA-M 1", "group": "resource", "lat": -35.38008974595966, "lon": -128.337006738121, "alt_km": 822.1327767427256, "timestamp": "2025-12-21T14:40:47.568706+00:00", "meta": {"OBJECT_NAME": "IONOSFERA-M 1", "OBJECT_ID": "2024-199A", "EPOCH": "2025-12-21T06:24:31.456800", "MEAN_MOTION": 14.22715825, "ECCENTRICITY": 5.484e-05, "INCLINATION": 98.7398, "RA_OF_ASC_NODE": 225.0496, "ARG_OF_PERICENTER": 10.9488, "MEAN_ANOMALY": 349.1702, "EPHEMERIS_TYPE": 0, "CLASSIFICATION_TYPE": "U", "NORAD_CAT_ID": 61735, "ELEMENT_SET_NO": 999, "REV_AT_EPOCH": 10240, "BSTAR": 4.4132909e-05, "MEAN_MOTION_DOT": 5.5e-07, "MEAN_MOTION_DDOT": 0}, "tle": {"line1": "1 61735U 24199A   25355.26703075  .00000055  00000+0  44133-4 0  9995", "line2": "2 61735  98.7398 225.0496 0000548  10.9488 349.1702 14.22715825102403"}}, "geometry": {"type": "Point", "coordinates": [-128.337006738121, -35.38008974595966]}}, {"type": "Feature", "properties": {"norad_id": 61736, "name": "IONOSFERA-M 2", "group": "resource", "lat": 32.48247881476042, "lon": 50.92400340152748, "alt_km": 813.3268297376744, "timestamp": "2025-12-21T14:40:47.568716+00:00", "meta": {"OBJECT_NAME": "IONOSFERA-M 2", "OBJECT_ID": "2024-199B", "EPOCH": "2025-12-21T05:33:07.543584", "MEAN_MOTION": 14.22717997, "ECCENTRICITY": 0.00018146, "INCLINATION": 98.7397, "RA_OF_ASC_NODE": 224.9266, "ARG_OF_PERICENTER": 99.6869, "MEAN_ANOMALY": 260.4514, "EPHEMERIS_TYPE": 0, "CLASSIFICATION_TYPE": "U", "NORAD_CAT_ID": 61736, "ELEMENT_SET_NO": 999, "REV_AT_EPOCH": 10552, "BSTAR": 4.6855061e-05, "MEAN_MOTION_DOT": 6.1e-07, "MEAN_MOTION_DDOT": 0}, "tle": {"line1": "1 61736U 24199B   25355.23133731  .00000061  00000+0  46855-4 0  9999", "line2": "2 61736  98.7397 224.9266 0001814  99.6869 260.4514 14.22717997105524"}}, "geometry": {"type": "Point", "coordinates": [50.92400340152748, 32.48247881476042]}}, {"type": "Feature", "properties": {"norad_id": 63772, "name": "BIOMASS", "group": "resource", "lat": -31.511906372811595, "lon": -174.51820372977, "alt_km": 675.4228336466567, "timestamp": "2025-12-21T14:40:47.568726+00:00", "meta": {"OBJECT_NAME": "BIOMASS", "OBJECT_ID": "2025-090A", "EPOCH": "2025-12-21T01:44:01.476384", "MEAN_MOTION": 14.67531176, "ECCENTRICITY": 0.00012746, "INCLINATION": 98.0692, "RA_OF_ASC_NODE": 179.9608, "ARG_OF_PERICENTER": 86.9021, "MEAN_ANOMALY": 273.233, "EPHEMERIS_TYPE": 0, "CLASSIFICATION_TYPE": "U", "NORAD_CAT_ID": 63772, "ELEMENT_SET_NO": 999, "REV_AT_EPOCH": 3456, "BSTAR": 0.00016266869, "MEAN_MOTION_DOT": 8.74e-06, "MEAN_MOTION_DDOT": 0}, "tle": {"line1": "1 63772U 25090A   25355.07223931  .00000874  00000+0  16267-3 0  9991", "line2": "2 63772  98.0692 179.9608 0001274  86.9021 273.2330 14.67531176 34560"}}, "geometry": {"type": "Point", "coordinates": [-174.51820372977, -31.511906372811595]}}, {"type": "Feature", "properties": {"norad_id": 64694, "name": "GOSAT-GW (IBUKI GW)", "group": "resource", "lat": 1.252051556902908, "lon": 111.14137804128137, "alt_km": 671.7840294227308, "timestamp": "2025-12-21T14:40:47.568736+00:00", "meta": {"OBJECT_NAME": "GOSAT-GW (IBUKI GW)", "OBJECT_ID": "2025-141A", "EPOCH": "2025-12-21T05:41:13.020000", "MEAN_MOTION": 14.67560133, "ECCENTRICITY": 0.00014104, "INCLINATION": 98.0434, "RA_OF_ASC_NODE": 290.5964, "ARG_OF_PERICENTER": 85.0423, "MEAN_ANOMALY": 275.0943, "EPHEMERIS_TYPE": 0, "CLASSIFICATION_TYPE": "U", "NORAD_CAT_ID": 64694, "ELEMENT_SET_NO": 999, "REV_AT_EPOCH": 2574, "BSTAR": 0.00010352218, "MEAN_MOTION_DOT": 5.4e-06, "MEAN_MOTION_DDOT": 0}, "tle": {"line1": "1 64694U 25141A   25355.23695625  .00000540  00000+0  10352-3 0  9992", "line2": "2 64694  98.0434 290.5964 0001410  85.0423 275.0943 14.67560133 25746"}}, "geometry": {"type": "Point", "coordinates": [111.14137804128137, 1.252051556902908]}}, {"type": "Feature", "properties": {"norad_id": 64876, "name": "IONOSFERA-M 3", "group": "resource", "lat": 29.07635146524878, "lon": 142.04242490497964, "alt_km": 819.4146988571529, "timestamp": "2025-12-21T14:40:47.568746+00:00", "meta": {"OBJECT_NAME": "IONOSFERA-M 3", "OBJECT_ID": "2025-155A", "EPOCH": "2025-12-21T07:13:01.186752", "MEAN_MOTION": 14.2144297, "ECCENTRICITY": 0.00019894, "INCLINATION": 98.5795, "RA_OF_ASC_NODE": 316.9249, "ARG_OF_PERICENTER": 46.2096, "MEAN_ANOMALY": 313.9246, "EPHEMERIS_TYPE": 0, "CLASSIFICATION_TYPE": "U", "NORAD_CAT_ID": 64876, "ELEMENT_SET_NO": 999, "REV_AT_EPOCH": 2113, "BSTAR": 4.1526484e-05, "MEAN_MOTION_DOT": 4.8e-07, "MEAN_MOTION_DDOT": 0}, "tle": {"line1": "1 64876U 25155A   25355.30070818  .00000048  00000+0  41526-4 0  9999", "line2": "2 64876  98.5795 316.9249 0001989  46.2096 313.9246 14.21442970 21133"}}, "geometry": {"type": "Point", "coordinates": [142.04242490497964, 29.07635146524878]}}, {"type": "Feature", "properties": {"norad_id": 64877, "name": "IONOSFERA-M 4", "group": "resource", "lat": -28.63340851708888, "lon": -38.12573710088906, "alt_km": 826.1573745719006, "timestamp": "2025-12-21T14:40:47.568756+00:00", "meta": {"OBJECT_NAME": "IONOSFERA-M 4", "OBJECT_ID": "2025-155B", "EPOCH": "2025-12-21T06:22:08.560704", "MEAN_MOTION": 14.21444094, "ECCENTRICITY": 0.00013966, "INCLINATION": 98.5793, "RA_OF_ASC_NODE": 316.81, "ARG_OF_PERICENTER": 55.2319, "MEAN_ANOMALY": 304.899, "EPHEMERIS_TYPE": 0, "CLASSIFICATION_TYPE": "U", "NORAD_CAT_ID": 64877, "ELEMENT_SET_NO": 999, "REV_AT_EPOCH": 2112, "BSTAR": 3.9935793e-05, "MEAN_MOTION_DOT": 4.5e-07, "MEAN_MOTION_DDOT": 0}, "tle": {"line1": "1 64877U 25155B   25355.26537686  .00000045  00000+0  39936-4 0  9995", "line2": "2 64877  98.5793 316.8100 0001396  55.2319 304.8990 14.21444094 21120"}}, "geometry": {"type": "Point", "coordinates": [-38.12573710088906, -28.63340851708888]}}, {"type": "Feature", "properties": {"norad_id": 64899, "name": "MICROCARB", "group": "resource", "lat": -59.24916196706848, "lon": 84.49018163209574, "alt_km": 673.9250525390926, "timestamp": "2025-12-21T14:40:47.568766+00:00", "meta": {"OBJECT_NAME": "MICROCARB", "OBJECT_ID": "2025-156A", "EPOCH": "2025-12-21T05:09:56.513088", "MEAN_MOTION": 14.7206992, "ECCENTRICITY": 0.00175355, "INCLINATION": 98.0016, "RA_OF_ASC_NODE": 70.4245, "ARG_OF_PERICENTER": 119.2699, "MEAN_ANOMALY": 241.0264, "EPHEMERIS_TYPE": 0, "CLASSIFICATION_TYPE": "U", "NORAD_CAT_ID": 64899, "ELEMENT_SET_NO": 999, "REV_AT_EPOCH": 2178, "BSTAR": 9.7828994e-05, "MEAN_MOTION_DOT": 5.67e-06, "MEAN_MOTION_DDOT": 0}, "tle": {"line1": "1 64899U 25156A   25355.21523742  .00000567  00000+0  97829-4 0  9997", "line2": "2 64899  98.0016  70.4245 0017535 119.2699 241.0264 14.72069920 21789"}}, "geometry": {"type": "Point", "coordinates": [84.49018163209574, -59.24916196706848]}}, {"type": "Feature", "properties": {"norad_id": 64900, "name": "CO3D 3", "group": "resource", "lat": 74.31834759909049, "lon": 44.134148521274675, "alt_km": 497.20136285325134, "timestamp": "2025-12-21T14:40:47.568776+00:00", "meta": {"OBJECT_NAME": "CO3D 3", "OBJECT_ID": "2025-156B", "EPOCH": "2025-12-21T06:26:51.014400", "MEAN_MOTION": 15.20210369, "ECCENTRICITY": 0.0001338, "INCLINATION": 97.4343, "RA_OF_ASC_NODE": 71.5137, "ARG_OF_PERICENTER": 79.6082, "MEAN_ANOMALY": 280.5304, "EPHEMERIS_TYPE": 0, "CLASSIFICATION_TYPE": "U", "NORAD_CAT_ID": 64900, "ELEMENT_SET_NO": 999, "REV_AT_EPOCH": 2250, "BSTAR": 0.00020596331, "MEAN_MOTION_DOT": 4.395e-05, "MEAN_MOTION_DDOT": 0}, "tle": {"line1": "1 64900U 25156B   25355.26864600  .00004395  00000+0  20596-3 0  9995", "line2": "2 64900  97.4343  71.5137 0001338  79.6082 280.5304 15.20210369 22502"}}, "geometry": {"type": "Point", "coordinates": [44.134148521274675, 74.31834759909049]}}, {"type": "Feature", "properties": {"norad_id": 64901, "name": "CO3D 4", "group": "resource", "lat": 73.52853455484755, "lon": 45.644475510110084, "alt_km": 498.22093476773443, "timestamp": "2025-12-21T14:40:47.568786+00:00", "meta": {"OBJECT_NAME": "CO3D 4", "OBJECT_ID": "2025-156C", "EPOCH": "2025-12-21T06:27:04.514400", "MEAN_MOTION": 15.20200918, "ECCENTRICITY": 0.00012501, "INCLINATION": 97.4342, "RA_OF_ASC_NODE": 71.514, "ARG_OF_PERICENTER": 167.6854, "MEAN_ANOMALY": 192.4412, "EPHEMERIS_TYPE": 0, "CLASSIFICATION_TYPE": "U", "NORAD_CAT_ID": 64901, "ELEMENT_SET_NO": 999, "REV_AT_EPOCH": 2250, "BSTAR": 0.0002062152, "MEAN_MOTION_DOT": 4.399e-05, "MEAN_MOTION_DDOT": 0}, "tle": {"line1": "1 64901U 25156C   25355.26880225  .00004399  00000+0  20622-3 0  9991", "line2": "2 64901  97.4342  71.5140 0001250 167.6854 192.4412 15.20200918 22504"}}, "geometry": {"type": "Point", "coordinates": [45.644475510110084, 73.52853455484755]}}]}